07096   15.20  0.15 K2669  91.59974  258.04193  146.45423   11.15452  0.5030221  0.21320332   2.7750665  0 MPO980632  1500  23 1984-2026 0.86 M-v 3Ek MPCORBFIT  0005   (7096) Napier             20260411
07097   13.78  0.15 K2669 300.88111  324.89448   87.36496    1.76621  0.1879968  0.26841288   2.3801289  0 E2026-M09  4107  27 1982-2026 0.74 M-v 3Ek MPCORBFIT  0000   (7097) Yatsuka            20260615
07098   13.88  0.15 K2669  54.21909   86.08352  115.18762    5.73331  0.2112545  0.22974134   2.6402392  0 E2026-M59  4003  28 1970-2026 0.74 M-v 3Ek MPCORBFIT  0000   (7098) Reaumur            20260620
07099   13.06  0.15 K2669 130.26175  145.90751   90.54051    2.22996  0.1298576  0.17618909   3.1512538  0 MPO980632  3934  30 1978-2025 0.68 M-v 3Ek MPCORBFIT  0000   (7099) Feuerbach          20251206
07100   14.32  0.15 K2669 350.72486  113.79141  200.80843    1.27082  0.0910744  0.20306132   2.8667154  0 E2026-M27  2539  29 1973-2026 0.79 M-v 3Ek MPCORBFIT  0000   (7100) Martin Luther      20260617
07101   14.19  0.15 K2669 142.96656   57.83377  333.82176    4.73107  0.2038688  0.28272079   2.2991337  0 E2026-M09  6729  28 1930-2026 0.53 M-v 3Ek MPCORBFIT  0000   (7101) Haritina           20260613
07102   12.21  0.15 K2669 205.58627  347.66388  297.81343   18.66503  0.2420702  0.17983824   3.1084796  0 E2026-M16  4473  28 1936-2026 0.68 M-v 3Ek MPCORBFIT  0000   (7102) Neilbone           20260414
07103   12.87  0.15 K2669 280.00563   99.46039  183.05744   10.14972  0.0816084  0.18846602   3.0128720  0 E2026-M16  4789  30 1953-2026 0.71 M-v 3Ek MPCORBFIT  0000   (7103) Wichmann           20260614
07104   13.31  0.15 K2669 224.01382  153.42779  341.10772    6.25455  0.0745195  0.25165913   2.4846254  0 E2026-M09  4858  27 1955-2025 0.66 M-v 3Ek MPCORBFIT  0000   (7104) Manyousyu          20250910
07105   14.68  0.15 K2669  90.47657  332.22006  139.37966    2.95011  0.1745042  0.26371953   2.4082848  0 E2026-M59  3273  27 1955-2026 0.75 M-v 3Ek MPCORBFIT  0000   (7105) Yousyozan          20260621
07106   12.61  0.15 K2669  64.60004  204.65141  147.90054    9.92513  0.1784454  0.21048698   2.7988904  0 MPO980632  4953  26 1954-2026 0.69 M-v 3Ek MPCORBFIT  0000   (7106) Kondakov           20260308
07107   14.18  0.15 K2669  32.49959  169.43615  168.78386    9.16708  0.1470859  0.28251054   2.3002742  0 MPO964393  4154  28 1976-2025 0.68 M-v 3Ek MPCLINUX   0000   (7107) Peiser             20250918
07108   13.48  0.15 K2669 230.21636  197.30594  197.16642    3.05526  0.1858959  0.19216584   2.9740750  0 E2026-M59  3389  30 1971-2026 0.79 M-v 3Ek MPCORBFIT  0000   (7108) Nefedov            20260620
07109   13.03  0.15 K2669 306.42791  153.62057  201.14963    9.94018  0.1503116  0.22772759   2.6557811  0 E2026-M59  4726  30 1975-2026 0.72 M-v 3Ek MPCORBFIT  0000   (7109) Heine              20260621
07110   13.12  0.15 K2669  16.36498  269.04476  173.18765    7.65708  0.2085928  0.21082764   2.7958745  0 MPO980632  6826  28 1978-2026 0.59 M-v 3Ek MPCORBFIT  0000   (7110) Johnpearse         20260409
07111   13.78  0.15 K2669 128.23046  323.99453  207.81304    7.54533  0.0742581  0.26401432   2.4064919  0 E2026-M59  5455  27 1978-2026 0.65 M-v 3Ek MPCORBFIT  0000   (7111) 1985 QA1           20260620
07112   13.34  0.15 K2669 219.38195  126.27113  111.35496   16.44619  0.1475826  0.21474941   2.7617311  0 MPO980632  3424  26 1986-2026 0.73 M-v 3Ek MPCORBFIT  0000   (7112) Ghislaine          20260305
07113   12.24  0.15 K2669 258.85936   75.14798  303.69714   12.64046  0.0506120  0.19343389   2.9610632  0 E2026-M45  4761  29 1971-2026 0.69 M-v 3Ek MPCORBFIT  0000   (7113) Ostapbender        20260619
07114   13.06  0.15 K2669  58.08917   93.62884  310.25369    5.17317  0.1447853  0.17751250   3.1355718  0 MPO980632  3979  28 1953-2026 0.71 M-v 3Ek MPCORBFIT  0000   (7114) Weinek             20260329
07115   13.71  0.15 K2669 350.38965  136.70036  319.09940    4.29134  0.1539013  0.17598825   3.1536508  0 MPO980632  2511  29 1980-2026 0.78 M-v 3Ek MPCORBFIT  0000   (7115) Franciscuszeno     20260319
07116   13.51  0.15 K2669 349.65226  100.50813   68.72994    8.69135  0.0526436  0.28000326   2.3139856  0 E2026-M09  7692  26 1956-2026 0.56 M-v 3Ek MPCORBFIT  0000   (7116) Mentall            20260608
07117   14.88  0.15 K2669 289.01147   58.43038  131.59828    4.89134  0.0581975  0.30595038   2.1812330  0 MPO980632  3140  23 1980-2026 0.77 M-v 3Ek MPCORBFIT  0000   (7117) Claudius           20260220
07118   12.56  0.15 K2669 172.33596  278.66397  199.00383   12.52914  0.1249431  0.22755690   2.6571090  0 E2026-M59  5248  29 1953-2026 0.72 M-v 3Ek MPCORBFIT  0000   (7118) Kuklov             20260620
07119    9.78  0.15 K2669 118.47432  123.69634  285.46469   19.34683  0.1017884  0.08501935   5.1222117  0 E2026-M59  4759  32 1987-2026 0.71 M-v 3Ek MPCORBFIT  0009   (7119) Hiera              20260620
07120   13.26  0.15 K2669 328.55953   93.39934  314.04694    1.16067  0.0517733  0.20346198   2.8629507  0 E2026-M16  4091  29 1954-2026 0.73 M-v 3Ek MPCORBFIT  0000   (7120) Davidgavine        20260616
07121   13.68  0.15 K2669 359.25496  199.58411  150.09587    2.55563  0.0905417  0.20042093   2.8918383  0 E2026-M59  5322  30 1972-2026 0.59 M-v 3Ek MPCORBFIT  0000   (7121) Busch              20260620
07122   14.77  0.15 K2669 128.70213  283.83476  342.34930    1.62081  0.1847140  0.30535751   2.1840554  0 MPO964393  3534  26 1983-2025 0.68 M-v 3Ek MPCORBFIT  0000   (7122) Iwasaki            20251221
07123   13.76  0.15 K2669 261.09313  206.01346  223.53136    5.11934  0.1033453  0.26422040   2.4052404  0 E2026-M59  4812  26 1978-2026 0.71 M-v 3Ek MPCORBFIT  0000   (7123) 1989 TT1           20260620
07124   11.50  0.15 K2669 119.64968   75.18182  273.52573   17.91474  0.0370882  0.17679007   3.1441081  0 E2026-M16  8482  30 1984-2026 0.53 M-v 3Ek MPCORBFIT  0000   (7124) Glinos             20260427
07125   14.43  0.15 K2669 147.10780  327.30705  189.91788    2.25629  0.1135426  0.26279086   2.4139552  0 E2026-M59  3416  27 1980-2026 0.78 M-v 3Ek MPCORBFIT  0000   (7125) Eitarodate         20260620
07126   13.75  0.15 K2669 359.14139  107.07581  219.40695    1.26209  0.0708940  0.20540418   2.8448750  0 E2026-M59  3565  30 1988-2026 0.74 M-v 3Ek MPCORBFIT  0000   (7126) Cureau             20260621
07127   13.51  0.15 K2669 255.50480   32.40576  209.06389    8.60814  0.2211640  0.18112635   3.0937244  0 MPO980632  3004  28 1989-2026 0.79 M-v 3Ek MPCORBFIT  0000   (7127) Stifter            20260314
07128   12.96  0.15 K2669 114.47838  106.56879  235.97701    2.74953  0.1982137  0.17686747   3.1431908  0 MPO980632  3568  30 1969-2026 0.76 M-v 3Ek MPCORBFIT  0000   (7128) Misawa             20260329
07129   13.37  0.15 K2669 285.52942  111.06241  241.43374   11.95259  0.1395248  0.21903511   2.7255881  0 E2026-M59  3554  28 1954-2026 0.74 M-v 3Ek MPCORBFIT  0000   (7129) 1991 VE1           20260620
07130   14.34  0.15 K2669 289.92197  131.96914  132.25714    5.41047  0.1535697  0.28563401   2.2834742  0 E2026-L10  4109  26 1954-2026 0.72 M-v 3Ek MPCORBFIT  0000   (7130) Klepper            20260605
07131   11.90  0.15 K2669  35.73999  290.85752   78.46344   16.14424  0.1676848  0.17416645   3.1756043  0 MPO980632  6750  30 1950-2026 0.63 M-v 3Ek MPCORBFIT  0000   (7131) Longtom            20260130
07132   13.88  0.15 K2669 256.32032  245.50495  321.09191    5.48816  0.2114266  0.28105441   2.3082125  0 MPO980632  5514  27 1936-2026 0.63 M-v 3Ek MPCORBFIT  0000   (7132) Casulli            20260319
07133   13.15  0.15 K2669  76.16161   43.94899  193.41495   14.65948  0.1151059  0.26542658   2.3979481  0 E2026-M59  6442  27 1978-2026 0.63 M-v 3Ek MPCORBFIT  0007   (7133) Kasahara           20260620
07134   13.30  0.15 K2669  19.80500   27.01543  228.15925   11.97358  0.1790342  0.26138446   2.4226065  0 E2026-M59  7495  25 1954-2026 0.58 M-v 3Ek MPCORBFIT  0000   (7134) Ikeuchisatoru      20260620
07135   14.27  0.15 K2669 111.43497  178.37039  207.43365    6.72021  0.2167236  0.25108216   2.4884303  0 MPO980632  2941  26 1989-2026 0.74 M-v 3Ek MPCORBFIT  0000   (7135) 1993 VO            20260413
07136   13.07  0.15 K2669 358.27128  256.40269   81.18345   15.50699  0.1402407  0.23598213   2.5934824  0 E2026-M16  5953  27 1951-2026 0.64 M-v 3Ek MPCORBFIT  0000   (7136) Yokohasuo          20260616
07137   12.98  0.15 K2669 324.78584  163.56058  292.71853    2.63971  0.0647659  0.20936245   2.8089038  0 MPO980632  4224  29 1955-2026 0.73 M-v 3Ek MPCORBFIT  0000   (7137) Ageo               20260120
07138   13.50  0.15 K2669 337.18599   95.41199  314.04484    7.34684  0.1331234  0.23629331   2.5912049  0 MPO980632  3752  26 1955-2025 0.69 M-v 3Ek MPCORBFIT  0000   (7138) 1994 AK15          20251209
07139   12.90  0.15 K2669  36.31662    5.95771  175.73474    9.78367  0.0213495  0.18985335   2.9981766  0 E2026-M27  4667  28 1986-2026 0.73 M-v 3Ek MPCORBFIT  0000   (7139) Tsubokawa          20260617
07140   13.73  0.15 K2669  11.39125  271.73207   67.49678    4.58819  0.2187581  0.28889074   2.2662804  0 MPO964394  3834  28 1951-2025 0.66 M-v 3Ek MPCLINUX   0000   (7140) Osaki              20250913
07141   13.63  0.15 K2669 324.69798  155.86356   47.33954    9.86288  0.0908754  0.21182508   2.7870908  0 E2026-L57  3645  26 1991-2026 0.74 M-v 3Ek MPCORBFIT  0000   (7141) Bettarini          20260529
07142   12.99  0.15 K2669 327.01404  119.32052  117.39772    0.32756  0.1086078  0.17534393   3.1613716  0 E2026-M59  4065  30 1949-2026 0.76 M-v 3Ek MPCORBFIT  0000   (7142) Spinoza            20260620
07143   11.83  0.15 K2669 267.83510  147.10299  213.23310   14.78431  0.1605206  0.18146936   3.0898247  0 E2026-M59  4903  29 1962-2026 0.72 M-v 3Ek MPCORBFIT  0000   (7143) Haramura           20260619
07144   13.93  0.15 K2669 274.65343  168.19562  154.66066    6.27340  0.1436068  0.26268619   2.4145964  0 E2026-M59  3739  29 1952-2026 0.73 M-v 3Ek MPCORBFIT  0000   (7144) Dossobuono         20260621
